GLOBALSTAR M045         
1 25676U 99019A   24350.84925851 -.00000091  00000+0  20144-4 0  9995
2 25676  51.9961 107.8170 0001013 140.2342  38.4545 12.27053320171120
GLOBALSTAR M019         
1 25677U 99019B   24350.41948698  .00000096  00000+0  19362-2 0  9995
2 25677  51.9862 226.4787 0001212  13.6922 157.8331 12.13868788163016
GLOBALSTAR M044         
1 25678U 99019C   24350.42529145 -.00000068  00000+0  21687-3 0  9993
2 25678  51.9937 154.8323 0007464  55.8657 318.3125 11.90245466149428
GLOBALSTAR M042         
1 25679U 99019D   24350.38886144 -.00000038  00000+0  50580-3 0  9995
2 25679  51.9990 209.8194 0001827 291.9879 240.0179 12.22074877162855
GLOBALSTAR M025         
1 25770U 99031A   24349.81070285 -.00000030  00000+0  11610-2 0  9990
2 25770  51.9795 226.3941 0001208 143.9149 304.4877 11.22557827461002
GLOBALSTAR M049         
1 25771U 99031B   24349.73154382 -.00000053  00000+0  42875-3 0  9996
2 25771  51.9868 252.0703 0004396  63.6120 296.5127 11.12111600 96900
GLOBALSTAR M047         
1 25772U 99031C   24349.76278016 -.00000053  00000+0  45936-3 0  9992
2 25772  51.9836 266.5895 0016135 309.4413  50.4965 11.31925647450229
GLOBALSTAR M052         
1 25773U 99031D   24350.09114664 -.00000085  00000+0 -62868-3 0  9998
2 25773  51.9898   2.5192 0002501 224.8032 168.0974 11.15056010115804
